{"type": "FeatureCollection", "features": [ {"type": "Feature", "properties": {"norad_id": 41175, "name": "GSAT0208 (GALILEO 11)", "group": "galileo", "lat": 55.410149021177105, "lon": -171.99225380223666, "alt_km": 23214.379633560344, "timestamp": "2025-12-05T05:43:15.372545+00:00", "meta": {"OBJECT_NAME": "GSAT0208 (GALILEO 11)", "OBJECT_ID": "2015-079B", "EPOCH": "2025-12-03T08:09:32.138784", "MEAN_MOTION": 1.70474152, "ECCENTRICITY": 0.00019072, "INCLINATION": 55.7055, "RA_OF_ASC_NODE": 106.6362, "ARG_OF_PERICENTER": 9.6551, "MEAN_ANOMALY": 350.3047, "EPHEMERIS_TYPE": 0, "CLASSIFICATION_TYPE": "U", "NORAD_CAT_ID": 41175, "ELEMENT_SET_NO": 999, "REV_AT_EPOCH": 6185, "BSTAR": 0, "MEAN_MOTION_DOT": 2.2e-07, "MEAN_MOTION_DDOT": 0}, "tle": {"line1": "1 41175U 15079B   25337.33995531  .00000022  00000+0  00000+0 0  9990", "line2": "2 41175  55.7055 106.6362 0001907   9.6551 350.3047  1.70474152 61857"}}, "geometry": {"type": "Point", "coordinates": [-171.99225380223666, 55.410149021177105]}}, {"type": "Feature", "properties": {"norad_id": 41549, "name": "GSAT0211 (GALILEO 14)", "group": "galileo", "lat": 7.35052420419604, "lon": -127.8145469168529, "alt_km": 23210.04742080093, "timestamp": "2025-12-05T05:43:15.372557+00:00", "meta": {"OBJECT_NAME": "GSAT0211 (GALILEO 14)", "OBJECT_ID": "2016-030A", "EPOCH": "2025-12-01T16:54:04.942368", "MEAN_MOTION": 1.70472896, "ECCENTRICITY": 0.00038995, "INCLINATION": 55.1563, "RA_OF_ASC_NODE": 227.1275, "ARG_OF_PERICENTER": 10.5053, "MEAN_ANOMALY": 349.5828, "EPHEMERIS_TYPE": 0, "CLASSIFICATION_TYPE": "U", "NORAD_CAT_ID": 41549, "ELEMENT_SET_NO": 999, "REV_AT_EPOCH": 5930, "BSTAR": 0, "MEAN_MOTION_DOT": 3.3e-07, "MEAN_MOTION_DDOT": 0}, "tle": {"line1": "1 41549U 16030A   25335.70422387  .00000033  00000+0  00000+0 0  9998", "line2": "2 41549  55.1563 227.1275 0003899  10.5053 349.5828  1.70472896 59309"}}, "geometry": {"type": "Point", "coordinates": [-127.8145469168529, 7.35052420419604]}}, {"type": "Feature", "properties": {"norad_id": 41550, "name": "GSAT0210 (GALILEO 13)", "group": "galileo", "lat": -25.00901022466346, "lon": 65.97406097491574, "alt_km": 23222.020258557666, "timestamp": "2025-12-05T05:43:15.372568+00:00", "meta": {"OBJECT_NAME": "GSAT0210 (GALILEO 13)", "OBJECT_ID": "2016-030B", "EPOCH": "2025-12-04T07:23:32.472672", "MEAN_MOTION": 1.70473512, "ECCENTRICITY": 0.0001419, "INCLINATION": 55.1546, "RA_OF_ASC_NODE": 227.0538, "ARG_OF_PERICENTER": 244.2228, "MEAN_ANOMALY": 115.8568, "EPHEMERIS_TYPE": 0, "CLASSIFICATION_TYPE": "U", "NORAD_CAT_ID": 41550, "ELEMENT_SET_NO": 999, "REV_AT_EPOCH": 5934, "BSTAR": 0, "MEAN_MOTION_DOT": 4e-07, "MEAN_MOTION_DDOT": 0}, "tle": {"line1": "1 41550U 16030B   25338.30801473  .00000040  00000+0  00000+0 0  9994", "line2": "2 41550  55.1546 227.0538 0001419 244.2228 115.8568  1.70473512 59344"}}, "geometry": {"type": "Point", "coordinates": [65.97406097491574, -25.00901022466346]}}, {"type": "Feature", "properties": {"norad_id": 41859, "name": "GSAT0207 (GALILEO 15)", "group": "galileo", "lat": 32.10174297515708, "lon": 132.1030725628133, "alt_km": 23216.559103486405, "timestamp": "2025-12-05T05:43:15.372579+00:00", "meta": {"OBJECT_NAME": "GSAT0207 (GALILEO 15)", "OBJECT_ID": "2016-069A", "EPOCH": "2025-12-03T23:59:33.819072", "MEAN_MOTION": 1.70474248, "ECCENTRICITY": 0.0002136, "INCLINATION": 55.3774, "RA_OF_ASC_NODE": 106.4923, "ARG_OF_PERICENTER": 325.6107, "MEAN_ANOMALY": 34.3288, "EPHEMERIS_TYPE": 0, "CLASSIFICATION_TYPE": "U", "NORAD_CAT_ID": 41859, "ELEMENT_SET_NO": 999, "REV_AT_EPOCH": 5607, "BSTAR": 0, "MEAN_MOTION_DOT": 1.5e-07, "MEAN_MOTION_DDOT": 0}, "tle": {"line1": "1 41859U 16069A   25337.99969698  .00000015  00000+0  00000+0 0  9998", "line2": "2 41859  55.3774 106.4923 0002136 325.6107  34.3288  1.70474248 56074"}}, "geometry": {"type": "Point", "coordinates": [132.1030725628133, 32.10174297515708]}}, {"type": "Feature", "properties": {"norad_id": 41860, "name": "GSAT0212 (GALILEO 16)", "group": "galileo", "lat": 39.01841316195488, "lon": -107.58303624252702, "alt_km": 23218.087269965225, "timestamp": "2025-12-05T05:43:15.372604+00:00", "meta": {"OBJECT_NAME": "GSAT0212 (GALILEO 16)", "OBJECT_ID": "2016-069B", "EPOCH": "2025-12-02T16:19:30.905184", "MEAN_MOTION": 1.70474418, "ECCENTRICITY": 0.00022458, "INCLINATION": 55.3738, "RA_OF_ASC_NODE": 106.5243, "ARG_OF_PERICENTER": 34.2432, "MEAN_ANOMALY": 325.7313, "EPHEMERIS_TYPE": 0, "CLASSIFICATION_TYPE": "U", "NORAD_CAT_ID": 41860, "ELEMENT_SET_NO": 999, "REV_AT_EPOCH": 5630, "BSTAR": 0, "MEAN_MOTION_DOT": 2.7e-07, "MEAN_MOTION_DDOT": 0}, "tle": {"line1": "1 41860U 16069B   25336.68021881  .00000027  00000+0  00000+0 0  9991", "line2": "2 41860  55.3738 106.5243 0002245  34.2432 325.7313  1.70474418 56308"}}, "geometry": {"type": "Point", "coordinates": [-107.58303624252702, 39.01841316195488]}}, {"type": "Feature", "properties": {"norad_id": 41861, "name": "GSAT0213 (GALILEO 17)", "group": "galileo", "lat": -54.988636234217715, "lon": 6.680500357134107, "alt_km": 23222.256049019055, "timestamp": "2025-12-05T05:43:15.372618+00:00", "meta": {"OBJECT_NAME": "GSAT0213 (GALILEO 17)", "OBJECT_ID": "2016-069C", "EPOCH": "2025-12-01T20:59:28.954752", "MEAN_MOTION": 1.70474717, "ECCENTRICITY": 0.00020626, "INCLINATION": 55.3756, "RA_OF_ASC_NODE": 106.5542, "ARG_OF_PERICENTER": 284.0381, "MEAN_ANOMALY": 75.9044, "EPHEMERIS_TYPE": 0, "CLASSIFICATION_TYPE": "U", "NORAD_CAT_ID": 41861, "ELEMENT_SET_NO": 999, "REV_AT_EPOCH": 5615, "BSTAR": 0, "MEAN_MOTION_DOT": 3.5e-07, "MEAN_MOTION_DDOT": 0}, "tle": {"line1": "1 41861U 16069C   25335.87464068  .00000035  00000+0  00000+0 0  9999", "line2": "2 41861  55.3756 106.5542 0002062 284.0381  75.9044  1.70474717 56156"}}, "geometry": {"type": "Point", "coordinates": [6.680500357134107, -54.988636234217715]}}, {"type": "Feature", "properties": {"norad_id": 41862, "name": "GSAT0214 (GALILEO 18)", "group": "galileo", "lat": 4.240516697136393, "lon": -76.49861660167954, "alt_km": 23223.30626208554, "timestamp": "2025-12-05T05:43:15.372630+00:00", "meta": {"OBJECT_NAME": "GSAT0214 (GALILEO 18)", "OBJECT_ID": "2016-069D", "EPOCH": "2025-12-02T14:34:22.700352", "MEAN_MOTION": 1.70474512, "ECCENTRICITY": 0.0001109, "INCLINATION": 55.3745, "RA_OF_ASC_NODE": 106.5268, "ARG_OF_PERICENTER": 291.2976, "MEAN_ANOMALY": 68.6511, "EPHEMERIS_TYPE": 0, "CLASSIFICATION_TYPE": "U", "NORAD_CAT_ID": 41862, "ELEMENT_SET_NO": 999, "REV_AT_EPOCH": 5629, "BSTAR": 0, "MEAN_MOTION_DOT": 2.8e-07, "MEAN_MOTION_DDOT": 0}, "tle": {"line1": "1 41862U 16069D   25336.60720718  .00000028  00000+0  00000+0 0  9991", "line2": "2 41862  55.3745 106.5268 0001109 291.2976  68.6511  1.70474512 56297"}}, "geometry": {"type": "Point", "coordinates": [-76.49861660167954, 4.240516697136393]}}, {"type": "Feature", "properties": {"norad_id": 43055, "name": "GSAT0215 (GALILEO 19)", "group": "galileo", "lat": -41.59631181821419, "lon": 85.03028546430016, "alt_km": 23226.0451217636, "timestamp": "2025-12-05T05:43:15.372641+00:00", "meta": {"OBJECT_NAME": "GSAT0215 (GALILEO 19)", "OBJECT_ID": "2017-079A", "EPOCH": "2025-11-29T13:52:03.216864", "MEAN_MOTION": 1.70473718, "ECCENTRICITY": 0.0001588, "INCLINATION": 55.1353, "RA_OF_ASC_NODE": 227.0004, "ARG_OF_PERICENTER": 310.5234, "MEAN_ANOMALY": 49.536, "EPHEMERIS_TYPE": 0, "CLASSIFICATION_TYPE": "U", "NORAD_CAT_ID": 43055, "ELEMENT_SET_NO": 999, "REV_AT_EPOCH": 4958, "BSTAR": 0, "MEAN_MOTION_DOT": 2.7e-07, "MEAN_MOTION_DDOT": 0}, "tle": {"line1": "1 43055U 17079A   25333.57781501  .00000027  00000+0  00000+0 0  9998", "line2": "2 43055  55.1353 227.0004 0001588 310.5234  49.5360  1.70473718 49587"}}, "geometry": {"type": "Point", "coordinates": [85.03028546430016, -41.59631181821419]}}, {"type": "Feature", "properties": {"norad_id": 43056, "name": "GSAT0216 (GALILEO 20)", "group": "galileo", "lat": 42.38498969948602, "lon": -93.69253423812359, "alt_km": 23218.685341326036, "timestamp": "2025-12-05T05:43:15.372653+00:00", "meta": {"OBJECT_NAME": "GSAT0216 (GALILEO 20)", "OBJECT_ID": "2017-079B", "EPOCH": "2025-12-03T23:24:20.577888", "MEAN_MOTION": 1.70473886, "ECCENTRICITY": 0.0002683, "INCLINATION": 55.1334, "RA_OF_ASC_NODE": 226.8793, "ARG_OF_PERICENTER": 313.43, "MEAN_ANOMALY": 46.6407, "EPHEMERIS_TYPE": 0, "CLASSIFICATION_TYPE": "U", "NORAD_CAT_ID": 43056, "ELEMENT_SET_NO": 999, "REV_AT_EPOCH": 4967, "BSTAR": 0, "MEAN_MOTION_DOT": 4.1e-07, "MEAN_MOTION_DDOT": 0}, "tle": {"line1": "1 43056U 17079B   25337.97523817  .00000041  00000+0  00000+0 0  9997", "line2": "2 43056  55.1334 226.8793 0002683 313.4300  46.6407  1.70473886 49678"}}, "geometry": {"type": "Point", "coordinates": [-93.69253423812359, 42.38498969948602]}}, {"type": "Feature", "properties": {"norad_id": 43057, "name": "GSAT0217 (GALILEO 21)", "group": "galileo", "lat": -53.9821186231065, "lon": 153.53867033225106, "alt_km": 23225.99675911675, "timestamp": "2025-12-05T05:43:15.372664+00:00", "meta": {"OBJECT_NAME": "GSAT0217 (GALILEO 21)", "OBJECT_ID": "2017-079C", "EPOCH": "2025-12-02T10:28:08.868000", "MEAN_MOTION": 1.70473685, "ECCENTRICITY": 0.00026117, "INCLINATION": 55.1312, "RA_OF_ASC_NODE": 226.9197, "ARG_OF_PERICENTER": 354.1722, "MEAN_ANOMALY": 5.9091, "EPHEMERIS_TYPE": 0, "CLASSIFICATION_TYPE": "U", "NORAD_CAT_ID": 43057, "ELEMENT_SET_NO": 999, "REV_AT_EPOCH": 4963, "BSTAR": 0, "MEAN_MOTION_DOT": 3.7e-07, "MEAN_MOTION_DDOT": 0}, "tle": {"line1": "1 43057U 17079C   25336.43621375  .00000037  00000+0  00000+0 0  9991", "line2": "2 43057  55.1312 226.9197 0002611 354.1722   5.9091  1.70473685 49635"}}, "geometry": {"type": "Point", "coordinates": [153.53867033225106, -53.9821186231065]}}]}